GSAT0101 (PRN E11)      
1 37846U 11060A   15118.18565822  .00000021  00000-0  00000+0 0  9991
2 37846  55.2715  93.6623 0005109 306.3348 240.7781  1.70474372 21890
GSAT0102 (PRN E12)      
1 37847U 11060B   15120.41644088  .00000022  00000-0  00000+0 0  9994
2 37847  55.2737  93.5985 0006252 294.5136 222.7206  1.70474513 21932
GSAT0103 (PRN E19)      
1 38857U 12055A   15120.27282947 -.00000020  00000-0  00000+0 0  9996
2 38857  55.0011 213.6494 0003792 218.7845 141.2125  1.70473729 15855
GSAT0104 (PRN E20)      
1 38858U 12055B   15120.20749141 -.00000020  00000-0  00000+0 0  9994
2 38858  55.0017 213.6496 0002840 214.1257 145.8799  1.70473790 15792
GSAT0201 (PRN E18)      
1 40128U 14050A   15120.19274704 -.00000033  00000-0  00000+0 0  9994
2 40128  49.7976  76.4896 1565801  35.0699 334.2407  1.85519331  4820
GSAT0202                
1 40129U 14050B   15119.38259048 -.00000033  00000-0  00000+0 0  9998
2 40129  49.8554  75.4895 1565340  36.2752 333.3272  1.85519789  5001
